start=new Date('2021-12-27T00:00:00.000Z').valueOf();
sats=[{"REV_AT_EPOCH":"4486","ELEMENT_SET_NO":"999","EPOCH":"2021-12-26T07:16:00.500448","EPHEMERIS_TYPE":"0","MEAN_ELEMENT_THEORY":"SGP4","TLE_LINE1":"1 47915U 21021BH  21360.30278357 -.00001337  00000-0 -70861-4 0  9991","FILE":"3251546","CLASSIFICATION_TYPE":"U","TIME_SYSTEM":"UTC","COUNTRY_CODE":"US","MEAN_ANOMALY":"299.9976","APOAPSIS":"548.431","SITE":"AFETR","MEAN_MOTION_DDOT":"0.0000000000000","RCS_SIZE":"LARGE","INCLINATION":"53.0611","PERIOD":"95.592","LAUNCH_DATE":"2021-03-14","ECCENTRICITY":"0.00017400","OBJECT_ID":"2021-021BH","ARG_OF_PERICENTER":"60.1185","DECAY_DATE":null,"RA_OF_ASC_NODE":"324.7323","GP_ID":"192495730","NORAD_CAT_ID":"47915","TLE_LINE2":"2 47915  53.0611 324.7323 0001740  60.1185 299.9976 15.06395823 44866","MEAN_MOTION_DOT":"-0.00001337","OBJECT_TYPE":"PAYLOAD","SEMIMAJOR_AXIS":"6925.361","PERIAPSIS":"546.021","MEAN_MOTION":"15.06395823","OBJECT_NAME":"STARLINK-2376","REF_FRAME":"TEME","BSTAR":"-0.00007086100000","CENTER_NAME":"EARTH"},{"RCS_SIZE":"LARGE","INCLINATION":"53.0554","MEAN_MOTION_DDOT":"0.0000000000000","SITE":"AFETR","APOAPSIS":"548.382","MEAN_ANOMALY":"295.9571","COUNTRY_CODE":"US","TIME_SYSTEM":"UTC","TLE_LINE1":"1 47916U 21021BJ  21360.27652519 -.00001058  00000-0 -52178-4 0  9995","FILE":"3251546","CLASSIFICATION_TYPE":"U","MEAN_ELEMENT_THEORY":"SGP4","EPHEMERIS_TYPE":"0","EPOCH":"2021-12-26T06:38:11.776416","ELEMENT_SET_NO":"999","REV_AT_EPOCH":"4504","DECAY_DATE":null,"ARG_OF_PERICENTER":"64.1589","ECCENTRICITY":"0.00016550","OBJECT_ID":"2021-021BJ","LAUNCH_DATE":"2021-03-14","PERIOD":"95.593","SEMIMAJOR_AXIS":"6925.371","OBJECT_TYPE":"PAYLOAD","MEAN_MOTION_DOT":"-0.00001058","TLE_LINE2":"2 47916  53.0554 309.8579 0001655  64.1589 295.9571 15.06392571 45042","NORAD_CAT_ID":"47916","GP_ID":"192495470","RA_OF_ASC_NODE":"309.8579","BSTAR":"-0.00005217800000","CENTER_NAME":"EARTH","REF_FRAME":"TEME","MEAN_MOTION":"15.06392571","OBJECT_NAME":"STARLINK-2378","PERIAPSIS":"546.090"},{"NORAD_CAT_ID":"47917","RA_OF_ASC_NODE":"317.1700","GP_ID":"192525640","SEMIMAJOR_AXIS":"6925.352","TLE_LINE2":"2 47917  53.0548 317.1700 0002025  46.8238 313.2920 15.06398910 44981","MEAN_MOTION_DOT":"0.00004295","OBJECT_TYPE":"PAYLOAD","PERIAPSIS":"545.815","OBJECT_NAME":"STARLINK-2397","MEAN_MOTION":"15.06398910","CENTER_NAME":"EARTH","BSTAR":"0.00030708000000","REF_FRAME":"TEME","MEAN_ELEMENT_THEORY":"SGP4","TLE_LINE1":"1 47917U 21021BK  21360.88008866  .00004295  00000-0  30708-3 0  9991","FILE":"3251846","CLASSIFICATION_TYPE":"U","TIME_SYSTEM":"UTC","COUNTRY_CODE":"US","REV_AT_EPOCH":"4498","ELEMENT_SET_NO":"999","EPHEMERIS_TYPE":"0","EPOCH":"2021-12-26T21:07:19.660224","MEAN_MOTION_DDOT":"0.0000000000000","INCLINATION":"53.0548","RCS_SIZE":"LARGE","MEAN_ANOMALY":"313.2920","APOAPSIS":"548.619","SITE":"AFETR","LAUNCH_DATE":"2021-03-14","PERIOD":"95.592","ARG_OF_PERICENTER":"46.8238","DECAY_DATE":null,"ECCENTRICITY":"0.00020250","OBJECT_ID":"2021-021BK"},{"PERIAPSIS":"545.964","OBJECT_NAME":"STARLINK-2398","MEAN_MOTION":"15.06403253","REF_FRAME":"TEME","BSTAR":"0.00001436600000","CENTER_NAME":"EARTH","RA_OF_ASC_NODE":"320.4015","GP_ID":"192494481","NORAD_CAT_ID":"47918","TLE_LINE2":"2 47918  53.0566 320.4015 0001790  53.1613 306.9539 15.06403253 44908","MEAN_MOTION_DOT":"-0.00000068","OBJECT_TYPE":"PAYLOAD","SEMIMAJOR_AXIS":"6925.339","PERIOD":"95.592","LAUNCH_DATE":"2021-03-14","ECCENTRICITY":"0.00017900","OBJECT_ID":"2021-021BL","ARG_OF_PERICENTER":"53.1613","DECAY_DATE":null,"REV_AT_EPOCH":"4490","ELEMENT_SET_NO":"999","EPOCH":"2021-12-26T03:47:00.151296","EPHEMERIS_TYPE":"0","TLE_LINE1":"1 47918U 21021BL  21360.15764064 -.00000068  00000-0  14366-4 0  9999","FILE":"3251546","CLASSIFICATION_TYPE":"U","MEAN_ELEMENT_THEORY":"SGP4","TIME_SYSTEM":"UTC","COUNTRY_CODE":"US","MEAN_ANOMALY":"306.9539","APOAPSIS":"548.443","SITE":"AFETR","MEAN_MOTION_DDOT":"0.0000000000000","INCLINATION":"53.0566","RCS_SIZE":"LARGE"},{"ARG_OF_PERICENTER":"62.6421","DECAY_DATE":null,"ECCENTRICITY":"0.00017380","OBJECT_ID":"2021-021BM","LAUNCH_DATE":"2021-03-14","PERIOD":"95.592","MEAN_MOTION_DDOT":"0.0000000000000","INCLINATION":"53.0553","RCS_SIZE":"LARGE","APOAPSIS":"548.423","SITE":"AFETR","MEAN_ANOMALY":"297.4744","COUNTRY_CODE":"US","TLE_LINE1":"1 47919U 21021BM  21360.34102235 -.00000602  00000-0 -21507-4 0  9997","FILE":"3251546","CLASSIFICATION_TYPE":"U","MEAN_ELEMENT_THEORY":"SGP4","TIME_SYSTEM":"UTC","ELEMENT_SET_NO":"999","EPHEMERIS_TYPE":"0","EPOCH":"2021-12-26T08:11:04.331040","REV_AT_EPOCH":"4477","BSTAR":"-0.00002150700000","CENTER_NAME":"EARTH","REF_FRAME":"TEME","OBJECT_NAME":"STARLINK-2405","MEAN_MOTION":"15.06397995","PERIAPSIS":"546.016","SEMIMAJOR_AXIS":"6925.355","MEAN_MOTION_DOT":"-0.00000602","OBJECT_TYPE":"PAYLOAD","TLE_LINE2":"2 47919  53.0553 329.5667 0001738  62.6421 297.4744 15.06397995 44774","NORAD_CAT_ID":"47919","GP_ID":"192495231","RA_OF_ASC_NODE":"329.5667"},{"MEAN_MOTION":"15.06396151","OBJECT_NAME":"STARLINK-2087","PERIAPSIS":"546.169","CENTER_NAME":"EARTH","BSTAR":"-0.00005848800000","REF_FRAME":"TEME","NORAD_CAT_ID":"47977","GP_ID":"192494238","RA_OF_ASC_NODE":"13.6351","SEMIMAJOR_AXIS":"6925.360","OBJECT_TYPE":"PAYLOAD","MEAN_MOTION_DOT":"-0.00001152","TLE_LINE2":"2 47977  53.0561  13.6351 0001526  66.1990 293.9159 15.06396151 43473","LAUNCH_DATE":"2021-03-24","PERIOD":"95.592","DECAY_DATE":null,"ARG_OF_PERICENTER":"66.1990","ECCENTRICITY":"0.00015260","OBJECT_ID":"2021-024A","COUNTRY_CODE":"US","TIME_SYSTEM":"UTC","FILE":"3251546","TLE_LINE1":"1 47977U 21024A   21360.54882263 -.00001152  00000-0 -58488-4 0  9991","MEAN_ELEMENT_THEORY":"SGP4","CLASSIFICATION_TYPE":"U","EPHEMERIS_TYPE":"0","EPOCH":"2021-12-26T13:10:18.275232","ELEMENT_SET_NO":"999","REV_AT_EPOCH":"4347","RCS_SIZE":"LARGE","INCLINATION":"53.0561","MEAN_MOTION_DDOT":"0.0000000000000","SITE":"AFETR","APOAPSIS":"548.282","MEAN_ANOMALY":"293.9159"},{"MEAN_ANOMALY":"290.5557","SITE":"AFETR","APOAPSIS":"548.199","RCS_SIZE":"LARGE","INCLINATION":"53.0550","MEAN_MOTION_DDOT":"0.0000000000000","REV_AT_EPOCH":"4333","EPHEMERIS_TYPE":"0","EPOCH":"2021-12-26T13:40:49.543968","ELEMENT_SET_NO":"999","TIME_SYSTEM":"UTC","TLE_LINE1":"1 47978U 21024B   21360.57001787 -.00001467  00000-0 -79614-4 0  9992","CLASSIFICATION_TYPE":"U","FILE":"3251846","MEAN_ELEMENT_THEORY":"SGP4","COUNTRY_CODE":"US","OBJECT_ID":"2021-024B","ECCENTRICITY":"0.00014000","DECAY_DATE":null,"ARG_OF_PERICENTER":"69.5582","PERIOD":"95.592","LAUNCH_DATE":"2021-03-24","TLE_LINE2":"2 47978  53.0550  23.5518 0001400  69.5582 290.5557 15.06394941 43337","OBJECT_TYPE":"PAYLOAD","MEAN_MOTION_DOT":"-0.00001467","SEMIMAJOR_AXIS":"6925.364","RA_OF_ASC_NODE":"23.5518","GP_ID":"192525395","NORAD_CAT_ID":"47978","REF_FRAME":"TEME","BSTAR":"-0.00007961400000","CENTER_NAME":"EARTH","PERIAPSIS":"546.260","MEAN_MOTION":"15.06394941","OBJECT_NAME":"STARLINK-1647"},{"ELEMENT_SET_NO":"999","EPHEMERIS_TYPE":"0","EPOCH":"2021-12-27T00:00:00.999648","REV_AT_EPOCH":"357","COUNTRY_CODE":"US","MEAN_ELEMENT_THEORY":"SGP4","TLE_LINE1":"1 47979U 21024C   21361.00001157 -.00020648  00000-0 -14645-2 0  9996","FILE":"3251846","CLASSIFICATION_TYPE":"U","TIME_SYSTEM":"UTC","APOAPSIS":"555.757","SITE":"AFETR","MEAN_ANOMALY":"330.9335","MEAN_MOTION_DDOT":"0.0000000000000","INCLINATION":"53.0520","RCS_SIZE":"LARGE","PERIOD":"95.747","LAUNCH_DATE":"2021-03-24","ECCENTRICITY":"0.00015330","OBJECT_ID":"2021-024C","ARG_OF_PERICENTER":"71.0931","DECAY_DATE":null,"GP_ID":"192524145","RA_OF_ASC_NODE":"316.1610","NORAD_CAT_ID":"47979","MEAN_MOTION_DOT":"-0.00020648","OBJECT_TYPE":"PAYLOAD","TLE_LINE2":"2 47979  53.0520 316.1610 0001533  71.0931 330.9335 15.03962383  3575","SEMIMAJOR_AXIS":"6932.830","OBJECT_NAME":"STARLINK-2325","MEAN_MOTION":"15.03962383","PERIAPSIS":"553.632","REF_FRAME":"TEME","BSTAR":"-0.00146450000000","CENTER_NAME":"EARTH"},{"ECCENTRICITY":"0.00020500","OBJECT_ID":"2021-024D","ARG_OF_PERICENTER":"47.5268","DECAY_DATE":null,"PERIOD":"95.643","LAUNCH_DATE":"2021-03-24","APOAPSIS":"551.105","SITE":"AFETR","MEAN_ANOMALY":"126.6377","MEAN_MOTION_DDOT":"0.0000000000000","INCLINATION":"53.0538","RCS_SIZE":"LARGE","ELEMENT_SET_NO":"999","EPOCH":"2021-12-27T00:00:00.999648","EPHEMERIS_TYPE":"0","REV_AT_EPOCH":"357","COUNTRY_CODE":"US","TLE_LINE1":"1 47980U 21024D   21361.00001157 -.00019309  00000-0 -13091-2 0  9994","MEAN_ELEMENT_THEORY":"SGP4","FILE":"3251846","CLASSIFICATION_TYPE":"U","TIME_SYSTEM":"UTC","REF_FRAME":"TEME","BSTAR":"-0.00130910000000","CENTER_NAME":"EARTH","MEAN_MOTION":"15.05594094","OBJECT_NAME":"STARLINK-2312","PERIAPSIS":"548.264","MEAN_MOTION_DOT":"-0.00019309","OBJECT_TYPE":"PAYLOAD","TLE_LINE2":"2 47980  53.0538 296.4747 0002050  47.5268 126.6377 15.05594094  3571","SEMIMAJOR_AXIS":"6927.820","GP_ID":"192524896","RA_OF_ASC_NODE":"296.4747","NORAD_CAT_ID":"47980"},{"LAUNCH_DATE":"2021-03-24","PERIOD":"95.592","DECAY_DATE":null,"ARG_OF_PERICENTER":"61.6301","ECCENTRICITY":"0.00014350","OBJECT_ID":"2021-024E","TIME_SYSTEM":"UTC","CLASSIFICATION_TYPE":"U","TLE_LINE1":"1 47981U 21024E   21360.55895093  .00002015  00000-0  15413-3 0  9999","FILE":"3251654","MEAN_ELEMENT_THEORY":"SGP4","COUNTRY_CODE":"US","REV_AT_EPOCH":"4280","EPHEMERIS_TYPE":"0","EPOCH":"2021-12-26T13:24:53.360352","ELEMENT_SET_NO":"999","RCS_SIZE":"LARGE","INCLINATION":"53.0537","MEAN_MOTION_DDOT":"0.0000000000000","MEAN_ANOMALY":"298.4832","SITE":"AFETR","APOAPSIS":"548.202","PERIAPSIS":"546.215","MEAN_MOTION":"15.06401646","OBJECT_NAME":"STARLINK-2303","BSTAR":"0.00015413000000","CENTER_NAME":"EARTH","REF_FRAME":"TEME","NORAD_CAT_ID":"47981","RA_OF_ASC_NODE":"23.6111","GP_ID":"192499667","SEMIMAJOR_AXIS":"6925.344","TLE_LINE2":"2 47981  53.0537  23.6111 0001435  61.6301 298.4832 15.06401646 42801","OBJECT_TYPE":"PAYLOAD","MEAN_MOTION_DOT":"0.00002015"}];
